{"type": "FeatureCollection", "features": [ {"type": "Feature", "properties": {"norad_id": 60989, "name": "SENTINEL-2C", "group": "resource", "lat": -56.31264459734235, "lon": -120.9836434283499, "alt_km": 796.7482155561274, "timestamp": "2025-12-25T19:00:39.006171+00:00", "meta": {"OBJECT_NAME": "SENTINEL-2C", "OBJECT_ID": "2024-157A", "EPOCH": "2025-12-25T04:28:44.329152", "MEAN_MOTION": 14.30817321, "ECCENTRICITY": 0.00013885, "INCLINATION": 98.5666, "RA_OF_ASC_NODE": 71.489, "ARG_OF_PERICENTER": 103.3683, "MEAN_ANOMALY": 256.7655, "EPHEMERIS_TYPE": 0, "CLASSIFICATION_TYPE": "U", "NORAD_CAT_ID": 60989, "ELEMENT_SET_NO": 999, "REV_AT_EPOCH": 6810, "BSTAR": 7.543274e-05, "MEAN_MOTION_DOT": 1.54e-06, "MEAN_MOTION_DDOT": 0}, "tle": {"line1": "1 60989U 24157A   25359.18662418  .00000154  00000+0  75433-4 0  9996", "line2": "2 60989  98.5666  71.4890 0001388 103.3683 256.7655 14.30817321 68108"}}, "geometry": {"type": "Point", "coordinates": [-120.9836434283499, -56.31264459734235]}}, {"type": "Feature", "properties": {"norad_id": 61735, "name": "IONOSFERA-M 1", "group": "resource", "lat": 55.41110535626273, "lon": 62.43033170223588, "alt_km": 810.987943920878, "timestamp": "2025-12-25T19:00:39.006184+00:00", "meta": {"OBJECT_NAME": "IONOSFERA-M 1", "OBJECT_ID": "2024-199A", "EPOCH": "2025-12-25T06:37:01.656768", "MEAN_MOTION": 14.22716746, "ECCENTRICITY": 3.395e-05, "INCLINATION": 98.7403, "RA_OF_ASC_NODE": 229.0272, "ARG_OF_PERICENTER": 5.1854, "MEAN_ANOMALY": 354.9328, "EPHEMERIS_TYPE": 0, "CLASSIFICATION_TYPE": "U", "NORAD_CAT_ID": 61735, "ELEMENT_SET_NO": 999, "REV_AT_EPOCH": 10297, "BSTAR": 4.7093143e-05, "MEAN_MOTION_DOT": 6.1e-07, "MEAN_MOTION_DDOT": 0}, "tle": {"line1": "1 61735U 24199A   25359.27571362  .00000061  00000+0  47093-4 0  9997", "line2": "2 61735  98.7403 229.0272 0000339   5.1854 354.9328 14.22716746102970"}}, "geometry": {"type": "Point", "coordinates": [62.43033170223588, 55.41110535626273]}}, {"type": "Feature", "properties": {"norad_id": 61736, "name": "IONOSFERA-M 2", "group": "resource", "lat": -52.88570469753672, "lon": -118.81912226397209, "alt_km": 824.2306183963437, "timestamp": "2025-12-25T19:00:39.006194+00:00", "meta": {"OBJECT_NAME": "IONOSFERA-M 2", "OBJECT_ID": "2024-199B", "EPOCH": "2025-12-25T07:26:53.553984", "MEAN_MOTION": 14.22718916, "ECCENTRICITY": 0.00018602, "INCLINATION": 98.7394, "RA_OF_ASC_NODE": 228.9739, "ARG_OF_PERICENTER": 94.2267, "MEAN_ANOMALY": 265.9124, "EPHEMERIS_TYPE": 0, "CLASSIFICATION_TYPE": "U", "NORAD_CAT_ID": 61736, "ELEMENT_SET_NO": 999, "REV_AT_EPOCH": 10610, "BSTAR": 4.7418542e-05, "MEAN_MOTION_DOT": 6.2e-07, "MEAN_MOTION_DDOT": 0}, "tle": {"line1": "1 61736U 24199B   25359.31034206  .00000062  00000+0  47419-4 0  9997", "line2": "2 61736  98.7394 228.9739 0001860  94.2267 265.9124 14.22718916106108"}}, "geometry": {"type": "Point", "coordinates": [-118.81912226397209, -52.88570469753672]}}, {"type": "Feature", "properties": {"norad_id": 63772, "name": "BIOMASS", "group": "resource", "lat": 77.86566342736032, "lon": 143.32432027775923, "alt_km": 660.8998055527609, "timestamp": "2025-12-25T19:00:39.006205+00:00", "meta": {"OBJECT_NAME": "BIOMASS", "OBJECT_ID": "2025-090A", "EPOCH": "2025-12-25T00:38:36.523104", "MEAN_MOTION": 14.67537569, "ECCENTRICITY": 0.00010454, "INCLINATION": 98.0693, "RA_OF_ASC_NODE": 183.8574, "ARG_OF_PERICENTER": 84.1343, "MEAN_ANOMALY": 275.998, "EPHEMERIS_TYPE": 0, "CLASSIFICATION_TYPE": "U", "NORAD_CAT_ID": 63772, "ELEMENT_SET_NO": 999, "REV_AT_EPOCH": 3514, "BSTAR": 0.00023519199, "MEAN_MOTION_DOT": 1.286e-05, "MEAN_MOTION_DDOT": 0}, "tle": {"line1": "1 63772U 25090A   25359.02681161  .00001286  00000+0  23519-3 0  9999", "line2": "2 63772  98.0693 183.8574 0001045  84.1343 275.9980 14.67537569 35147"}}, "geometry": {"type": "Point", "coordinates": [143.32432027775923, 77.86566342736032]}}, {"type": "Feature", "properties": {"norad_id": 64694, "name": "GOSAT-GW (IBUKI GW)", "group": "resource", "lat": -67.035335106575, "lon": -45.435498036975645, "alt_km": 676.978539165536, "timestamp": "2025-12-25T19:00:39.006215+00:00", "meta": {"OBJECT_NAME": "GOSAT-GW (IBUKI GW)", "OBJECT_ID": "2025-141A", "EPOCH": "2025-12-25T07:52:03.916704", "MEAN_MOTION": 14.67559869, "ECCENTRICITY": 0.00014335, "INCLINATION": 98.0439, "RA_OF_ASC_NODE": 294.6134, "ARG_OF_PERICENTER": 82.1583, "MEAN_ANOMALY": 277.9784, "EPHEMERIS_TYPE": 0, "CLASSIFICATION_TYPE": "U", "NORAD_CAT_ID": 64694, "ELEMENT_SET_NO": 999, "REV_AT_EPOCH": 2634, "BSTAR": 0.00019498446, "MEAN_MOTION_DOT": 1.059e-05, "MEAN_MOTION_DDOT": 0}, "tle": {"line1": "1 64694U 25141A   25359.32782311  .00001059  00000+0  19498-3 0  9991", "line2": "2 64694  98.0439 294.6134 0001433  82.1583 277.9784 14.67559869 26340"}}, "geometry": {"type": "Point", "coordinates": [-45.435498036975645, -67.035335106575]}}, {"type": "Feature", "properties": {"norad_id": 64876, "name": "IONOSFERA-M 3", "group": "resource", "lat": -67.86449055512604, "lon": -16.92384320762287, "alt_km": 828.1093538637733, "timestamp": "2025-12-25T19:00:39.006225+00:00", "meta": {"OBJECT_NAME": "IONOSFERA-M 3", "OBJECT_ID": "2025-155A", "EPOCH": "2025-12-25T07:30:42.182208", "MEAN_MOTION": 14.21444018, "ECCENTRICITY": 0.0001838, "INCLINATION": 98.58, "RA_OF_ASC_NODE": 320.8242, "ARG_OF_PERICENTER": 39.6732, "MEAN_ANOMALY": 320.458, "EPHEMERIS_TYPE": 0, "CLASSIFICATION_TYPE": "U", "NORAD_CAT_ID": 64876, "ELEMENT_SET_NO": 999, "REV_AT_EPOCH": 2170, "BSTAR": 5.714798e-05, "MEAN_MOTION_DOT": 8.2e-07, "MEAN_MOTION_DDOT": 0}, "tle": {"line1": "1 64876U 25155A   25359.31298822  .00000082  00000+0  57148-4 0  9996", "line2": "2 64876  98.5800 320.8242 0001838  39.6732 320.4580 14.21444018 21705"}}, "geometry": {"type": "Point", "coordinates": [-16.92384320762287, -67.86449055512604]}}, {"type": "Feature", "properties": {"norad_id": 64877, "name": "IONOSFERA-M 4", "group": "resource", "lat": 67.10297086861854, "lon": 162.15377732173036, "alt_km": 813.4646208462327, "timestamp": "2025-12-25T19:00:39.006235+00:00", "meta": {"OBJECT_NAME": "IONOSFERA-M 4", "OBJECT_ID": "2025-155B", "EPOCH": "2025-12-25T06:39:49.300416", "MEAN_MOTION": 14.21445138, "ECCENTRICITY": 0.00012727, "INCLINATION": 98.5801, "RA_OF_ASC_NODE": 320.7093, "ARG_OF_PERICENTER": 51.5687, "MEAN_ANOMALY": 308.5605, "EPHEMERIS_TYPE": 0, "CLASSIFICATION_TYPE": "U", "NORAD_CAT_ID": 64877, "ELEMENT_SET_NO": 999, "REV_AT_EPOCH": 2169, "BSTAR": 5.9389138e-05, "MEAN_MOTION_DOT": 8.7e-07, "MEAN_MOTION_DDOT": 0}, "tle": {"line1": "1 64877U 25155B   25359.27765394  .00000087  00000+0  59389-4 0  9999", "line2": "2 64877  98.5801 320.7093 0001272  51.5687 308.5605 14.21445138 21691"}}, "geometry": {"type": "Point", "coordinates": [162.15377732173036, 67.10297086861854]}}, {"type": "Feature", "properties": {"norad_id": 64899, "name": "MICROCARB", "group": "resource", "lat": 58.27095444544133, "lon": -91.92398202674836, "alt_km": 636.8564775864761, "timestamp": "2025-12-25T19:00:39.006246+00:00", "meta": {"OBJECT_NAME": "MICROCARB", "OBJECT_ID": "2025-156A", "EPOCH": "2025-12-25T05:24:52.786080", "MEAN_MOTION": 14.72076741, "ECCENTRICITY": 0.00176327, "INCLINATION": 98.001, "RA_OF_ASC_NODE": 74.3701, "ARG_OF_PERICENTER": 107.3517, "MEAN_ANOMALY": 252.962, "EPHEMERIS_TYPE": 0, "CLASSIFICATION_TYPE": "U", "NORAD_CAT_ID": 64899, "ELEMENT_SET_NO": 999, "REV_AT_EPOCH": 2237, "BSTAR": 0.00012512947, "MEAN_MOTION_DOT": 7.39e-06, "MEAN_MOTION_DDOT": 0}, "tle": {"line1": "1 64899U 25156A   25359.22561095  .00000739  00000+0  12513-3 0  9992", "line2": "2 64899  98.0010  74.3701 0017632 107.3517 252.9620 14.72076741 22370"}}, "geometry": {"type": "Point", "coordinates": [-91.92398202674836, 58.27095444544133]}}, {"type": "Feature", "properties": {"norad_id": 64900, "name": "CO3D 3", "group": "resource", "lat": -77.62645651246204, "lon": -140.55147604505595, "alt_km": 513.5247895955408, "timestamp": "2025-12-25T19:00:39.006256+00:00", "meta": {"OBJECT_NAME": "CO3D 3", "OBJECT_ID": "2025-156B", "EPOCH": "2025-12-25T06:48:43.121088", "MEAN_MOTION": 15.20194746, "ECCENTRICITY": 0.00013935, "INCLINATION": 97.4336, "RA_OF_ASC_NODE": 75.4711, "ARG_OF_PERICENTER": 69.8364, "MEAN_ANOMALY": 290.3021, "EPHEMERIS_TYPE": 0, "CLASSIFICATION_TYPE": "U", "NORAD_CAT_ID": 64900, "ELEMENT_SET_NO": 999, "REV_AT_EPOCH": 2311, "BSTAR": 0.00030210139, "MEAN_MOTION_DOT": 6.476e-05, "MEAN_MOTION_DDOT": 0}, "tle": {"line1": "1 64900U 25156B   25359.28383242  .00006476  00000+0  30210-3 0  9995", "line2": "2 64900  97.4336  75.4711 0001393  69.8364 290.3021 15.20194746 23113"}}, "geometry": {"type": "Point", "coordinates": [-140.55147604505595, -77.62645651246204]}}, {"type": "Feature", "properties": {"norad_id": 64901, "name": "CO3D 4", "group": "resource", "lat": -77.06268950439929, "lon": -138.66445272750767, "alt_km": 512.7494178793586, "timestamp": "2025-12-25T19:00:39.006266+00:00", "meta": {"OBJECT_NAME": "CO3D 4", "OBJECT_ID": "2025-156C", "EPOCH": "2025-12-25T03:39:21.157344", "MEAN_MOTION": 15.20222514, "ECCENTRICITY": 0.00014907, "INCLINATION": 97.4335, "RA_OF_ASC_NODE": 75.3414, "ARG_OF_PERICENTER": 157.6472, "MEAN_ANOMALY": 202.4828, "EPHEMERIS_TYPE": 0, "CLASSIFICATION_TYPE": "U", "NORAD_CAT_ID": 64901, "ELEMENT_SET_NO": 999, "REV_AT_EPOCH": 2309, "BSTAR": 0.00020286523, "MEAN_MOTION_DOT": 4.329e-05, "MEAN_MOTION_DDOT": 0}, "tle": {"line1": "1 64901U 25156C   25359.15232821  .00004329  00000+0  20287-3 0  9996", "line2": "2 64901  97.4335  75.3414 0001490 157.6472 202.4828 15.20222514 23097"}}, "geometry": {"type": "Point", "coordinates": [-138.66445272750767, -77.06268950439929]}}]}